{"type":"FeatureCollection","features":[{"type":"Feature","properties":{"name":"Oaxaca"},"geometry":{"type":"Polygon","coordinates":[[[-94.1149,16.0572],[-94.3438,16.1477],[-94.3583,16.1584],[-94.3922,16.1777],[-94.4396,16.1868],[-94.5331,16.1894],[-94.5262,16.1894],[-94.5796,16.1898],[-94.6057,16.1935],[-94.6224,16.2023],[-94.6394,16.1957],[-94.6599,16.194],[-94.701,16.1956],[-94.7224,16.1997],[-94.729,16.2094],[-94.7243,16.2209],[-94.7118,16.2303],[-94.6254,16.2565],[-94.5871,16.2824],[-94.5808,16.3265],[-94.5914,16.3372],[-94.6302,16.3482],[-94.6457,16.357],[-94.6544,16.3636],[-94.6625,16.3654],[-94.67,16.3638],[-94.677,16.3607],[-94.6803,16.3449],[-94.6833,16.3402],[-94.6886,16.3376],[-94.7003,16.3345],[-94.7043,16.3327],[-94.7157,16.3228],[-94.7222,16.3156],[-94.7211,16.3122],[-94.7491,16.2986],[-94.7633,16.2935],[-94.7799,16.2681],[-94.7931,16.2576],[-94.8043,16.2752],[-94.8085,16.2864],[-94.8074,16.2986],[-94.7966,16.3082],[-94.7811,16.3166],[-94.7727,16.3272],[-94.7832,16.3432],[-94.7976,16.3583],[-94.8019,16.3694],[-94.8028,16.3803],[-94.8074,16.3948],[-94.8144,16.4031],[-94.8271,16.4145],[-94.8411,16.4246],[-94.8521,16.4289],[-94.8787,16.4246],[-94.9017,16.4129],[-94.9214,16.3953],[-94.9651,16.3332],[-94.975,16.3265],[-95.0333,16.3265],[-95.0275,16.3085],[-95.0356,16.3026],[-95.0476,16.3007],[-95.0538,16.2952],[-95.0652,16.2783],[-95.0638,16.2683],[-95.0438,16.261],[-94.9994,16.251],[-94.9646,16.2477],[-94.9306,16.2497],[-94.9021,16.2517],[-94.8895,16.2531],[-94.8689,16.2576],[-94.8592,16.2645],[-94.8418,16.2837],[-94.8341,16.2855],[-94.828,16.2703],[-94.8588,16.2563],[-94.9012,16.2465],[-94.9303,16.244],[-94.8964,16.2344],[-94.8055,16.2371],[-94.7764,16.2266],[-94.7615,16.2039],[-94.767,16.1987],[-94.8191,16.2137],[-94.8959,16.2117],[-94.9487,16.2017],[-94.9928,16.1964],[-95.0181,16.1903],[-95.0653,16.1836],[-95.1028,16.1843],[-95.1229,16.1883],[-95.1361,16.1883],[-95.1493,16.187],[-95.1555,16.1816],[-95.1541,16.1756],[-95.1493,16.1683],[-95.161,16.1632],[-95.1881,16.1676],[-95.1985,16.1583],[-95.2159,16.1583],[-95.2332,16.1582],[-95.2471,16.1476],[-95.2485,16.1342],[-95.2686,16.1282],[-95.2811,16.1189],[-95.2804,16.1082],[-95.2845,16.1042],[-95.2977,16.1015],[-95.3054,16.0935],[-95.3373,16.0888],[-95.3533,16.0795],[-95.3782,16.0475],[-95.3726,16.0275],[-95.3844,16.0214],[-95.3992,16.0088],[-95.4255,15.9994],[-95.4283,15.9854],[-95.4345,15.9754],[-95.4928,15.9747],[-95.4969,15.9653],[-95.5724,15.9571],[-95.5813,15.9451],[-95.609,15.9417],[-95.6146,15.929],[-95.6623,15.9116],[-95.7059,15.9088],[-95.733,15.9034],[-95.7551,15.8993],[-95.771,15.8906],[-95.7786,15.8846],[-95.7786,15.8733],[-95.8008,15.8705],[-95.8229,15.8651],[-95.8481,15.8583],[-95.879,15.8509],[-95.8879,15.8435],[-95.9599,15.8279],[-95.9682,15.8172],[-96.0034,15.8084],[-96.031,15.7923],[-96.0525,15.7875],[-96.0786,15.7701],[-96.0912,15.7687],[-96.096,15.762],[-96.1063,15.7573],[-96.1167,15.762],[-96.1277,15.7526],[-96.1255,15.7379],[-96.2042,15.7035],[-96.2366,15.6833],[-96.2872,15.6858],[-96.3619,15.684],[-96.4014,15.6917],[-96.4311,15.6959],[-96.4465,15.682],[-96.4703,15.6722],[-96.4861,15.6608],[-96.5049,15.6581],[-96.5263,15.6599],[-96.5492,15.6644],[-96.556,15.659],[-96.6136,15.6799],[-96.681,15.7094],[-96.8037,15.7318],[-96.8451,15.7326],[-96.9307,15.7827],[-96.9918,15.8001],[-97.0223,15.8072],[-97.0495,15.8289],[-97.0454,15.8323],[-97.0623,15.8594],[-97.0761,15.8566],[-97.1025,15.8691],[-97.1607,15.9038],[-97.2058,15.9197],[-97.266,15.9359],[-97.2852,15.9356],[-97.3455,15.9459],[-97.3686,15.9346],[-97.4592,15.945],[-97.5297,15.9682],[-97.5574,15.9622],[-97.6161,15.9756],[-97.66,15.9765],[-97.6731,15.9693],[-97.6817,15.9622],[-97.7184,15.9688],[-97.7727,15.9795],[-97.7919,15.9877],[-97.8111,16.003],[-97.8357,16.0106],[-97.846,16.0189],[-97.8546,16.0252],[-97.8612,16.0288],[-97.8774,16.04],[-97.9444,16.0874],[-97.9813,16.1094],[-98.0852,16.1651],[-98.1216,16.1762],[-98.1542,16.1903],[-98.1721,16.2092],[-98.1132,16.1927],[-98.0821,16.1893],[-98.0685,16.2023],[-98.0834,16.2008],[-98.0973,16.2109],[-98.1107,16.2186],[-98.1238,16.2092],[-98.1438,16.2176],[-98.1647,16.2228],[-98.1654,16.2248],[-98.1683,16.2293],[-98.1727,16.234],[-98.1784,16.2365],[-98.1782,16.2342],[-98.183,16.2295],[-98.1899,16.2249],[-98.1964,16.2228],[-98.2159,16.2247],[-98.3158,16.2557],[-98.4453,16.2781],[-98.5086,16.3004],[-98.5318,16.3096],[-98.5454,16.3124],[-98.5528,16.3148],[-98.5545,16.3183],[-98.5525,16.3217],[-98.537,16.3381],[-98.5194,16.3507],[-98.4992,16.3594],[-98.4737,16.3658],[-98.4456,16.3684],[-98.4189,16.3686],[-98.3933,16.3721],[-98.3685,16.3852],[-98.3426,16.4097],[-98.3219,16.4372],[-98.3153,16.4675],[-98.3317,16.501],[-98.3455,16.5245],[-98.3459,16.5473],[-98.3332,16.5661],[-98.3074,16.5777],[-98.2882,16.5767],[-98.2723,16.5726],[-98.256,16.5711],[-98.2356,16.5783],[-98.2338,16.581],[-98.232,16.5836],[-98.2302,16.5864],[-98.2284,16.5891],[-98.2197,16.6181],[-98.2239,16.6461],[-98.2334,16.674],[-98.2402,16.7026],[-98.2274,16.7071],[-98.2152,16.7089],[-98.2028,16.7081],[-98.1895,16.7052],[-98.1738,16.703],[-98.1606,16.7053],[-98.148,16.7108],[-98.1342,16.7183],[-98.1279,16.7206],[-98.1219,16.7236],[-98.1163,16.7272],[-98.1112,16.7313],[-98.1089,16.735],[-98.1066,16.7387],[-98.1046,16.7425],[-98.1026,16.7464],[-98.0882,16.7559],[-98.0787,16.7663],[-98.0729,16.7791],[-98.07,16.7964],[-98.0676,16.8145],[-98.0646,16.8325],[-98.0617,16.8505],[-98.059,16.8686],[-98.0576,16.8806],[-98.0589,16.8909],[-98.059,16.9004],[-98.054,16.9101],[-98.0439,16.9224],[-98.0347,16.935],[-98.0262,16.9483],[-98.0184,16.9621],[-98.0134,16.9721],[-98.0091,16.9824],[-98.0056,16.9931],[-98.0033,17.004],[-98.0017,17.015],[-98.003,17.0259],[-98.0069,17.0362],[-98.0131,17.0456],[-98.0425,17.0856],[-98.0721,17.1249],[-98.1029,17.1634],[-98.1358,17.2004],[-98.1392,17.2041],[-98.1427,17.2078],[-98.1461,17.2114],[-98.1496,17.2151],[-98.1619,17.2191],[-98.176,17.2198],[-98.1906,17.2189],[-98.2046,17.2182],[-98.2276,17.2229],[-98.2445,17.2453],[-98.2583,17.2732],[-98.2722,17.2945],[-98.2927,17.3011],[-98.3111,17.3071],[-98.3248,17.3175],[-98.3308,17.3372],[-98.3273,17.3583],[-98.3202,17.3776],[-98.3177,17.3967],[-98.3279,17.4171],[-98.3293,17.4187],[-98.3306,17.4205],[-98.3317,17.4223],[-98.3327,17.4242],[-98.329,17.437],[-98.325,17.4508],[-98.3237,17.4648],[-98.3277,17.4788],[-98.3338,17.4865],[-98.3401,17.494],[-98.3467,17.5013],[-98.3535,17.5084],[-98.3556,17.5103],[-98.3577,17.5123],[-98.3598,17.5143],[-98.3618,17.5163],[-98.3649,17.5191],[-98.3679,17.522],[-98.3709,17.5249],[-98.374,17.5278],[-98.3784,17.5416],[-98.3802,17.5555],[-98.3772,17.5682],[-98.3669,17.579],[-98.3625,17.5845],[-98.3623,17.5897],[-98.3658,17.5945],[-98.3723,17.5991],[-98.3865,17.6172],[-98.3887,17.6406],[-98.3845,17.6663],[-98.3792,17.6912],[-98.3764,17.7044],[-98.3729,17.7173],[-98.3691,17.7302],[-98.3656,17.7433],[-98.3618,17.7624],[-98.3572,17.7815],[-98.3516,17.8003],[-98.3448,17.8185],[-98.3338,17.8419],[-98.328,17.858],[-98.3314,17.8727],[-98.3478,17.8922],[-98.3426,17.8963],[-98.3374,17.9003],[-98.3322,17.9043],[-98.3269,17.9083],[-98.3226,17.9119],[-98.3183,17.9157],[-98.3141,17.9193],[-98.3098,17.923],[-98.3017,17.9199],[-98.2936,17.9167],[-98.2855,17.9137],[-98.2773,17.9111],[-98.2428,17.9138],[-98.2156,17.9384],[-98.1951,17.9731],[-98.1811,18.0059],[-98.1731,18.0175],[-98.1621,18.0239],[-98.149,18.0263],[-98.1351,18.0263],[-98.1261,18.0261],[-98.1172,18.0258],[-98.1082,18.0256],[-98.0993,18.0254],[-98.0829,18.0247],[-98.0664,18.024],[-98.0501,18.0233],[-98.0337,18.0226],[-98.0242,18.0224],[-98.0148,18.0224],[-98.0055,18.0227],[-97.996,18.0233],[-97.987,18.0248],[-97.978,18.0264],[-97.9691,18.0283],[-97.9601,18.0302],[-97.9488,18.0322],[-97.9368,18.035],[-97.9251,18.0359],[-97.9144,18.032],[-97.9081,18.0226],[-97.9045,18.0083],[-97.9026,17.9932],[-97.9014,17.9812],[-97.9006,17.9738],[-97.8992,17.9667],[-97.8975,17.9596],[-97.8952,17.9526],[-97.8907,17.9374],[-97.8841,17.9246],[-97.8736,17.9165],[-97.8576,17.9155],[-97.8452,17.9208],[-97.8329,17.9258],[-97.8205,17.9306],[-97.8081,17.9352],[-97.7961,17.9427],[-97.785,17.9511],[-97.7747,17.9605],[-97.765,17.9707],[-97.7553,17.9779],[-97.7462,17.9855],[-97.7385,17.9943],[-97.7325,18.0048],[-97.7327,18.0145],[-97.734,18.0242],[-97.7363,18.0337],[-97.7395,18.043],[-97.7472,18.0555],[-97.7564,18.0674],[-97.7667,18.0783],[-97.7776,18.0883],[-97.7798,18.0904],[-97.7823,18.0923],[-97.7849,18.0939],[-97.7876,18.0954],[-97.8027,18.1058],[-97.8137,18.1201],[-97.8178,18.137],[-97.8125,18.1547],[-97.8054,18.1664],[-97.7977,18.1776],[-97.7902,18.189],[-97.7837,18.2011],[-97.7736,18.2176],[-97.7641,18.2345],[-97.7546,18.2512],[-97.7443,18.2675],[-97.736,18.2832],[-97.7249,18.3022],[-97.712,18.3147],[-97.6986,18.3107],[-97.6729,18.3185],[-97.6353,18.3475],[-97.6061,18.3604],[-97.6056,18.3204],[-97.6171,18.2868],[-97.6321,18.2442],[-97.6425,18.2022],[-97.6402,18.1705],[-97.6283,18.1565],[-97.6131,18.1459],[-97.5964,18.1372],[-97.58,18.1286],[-97.5717,18.1224],[-97.563,18.1166],[-97.5542,18.111],[-97.5453,18.1055],[-97.5363,18.0948],[-97.5343,18.0809],[-97.5344,18.0655],[-97.532,18.0508],[-97.5257,18.0391],[-97.5174,18.0283],[-97.509,18.0175],[-97.502,18.0058],[-97.493,17.9937],[-97.4814,17.9853],[-97.4679,17.9802],[-97.4531,17.9783],[-97.4385,17.9814],[-97.427,17.9901],[-97.4186,18.0025],[-97.4134,18.0166],[-97.3881,18.0677],[-97.3556,18.111],[-97.3136,18.1446],[-97.2602,18.1666],[-97.258,18.1675],[-97.2556,18.1683],[-97.2533,18.1691],[-97.2509,18.1697],[-97.2285,18.1735],[-97.208,18.1769],[-97.1879,18.1763],[-97.1668,18.1682],[-97.1503,18.1593],[-97.1347,18.1521],[-97.1185,18.1465],[-97.1006,18.1419],[-97.0987,18.1417],[-97.0969,18.1415],[-97.095,18.1412],[-97.0932,18.141],[-97.0591,18.1312],[-97.0257,18.1223],[-96.9946,18.1235],[-96.9672,18.1445],[-96.9621,18.1514],[-96.9574,18.1585],[-96.9531,18.1659],[-96.9492,18.1736],[-96.9484,18.1751],[-96.9473,18.1767],[-96.9462,18.1781],[-96.945,18.1794],[-96.9405,18.1852],[-96.936,18.1911],[-96.9315,18.197],[-96.927,18.203],[-96.9222,18.2074],[-96.9174,18.2118],[-96.9126,18.2161],[-96.9076,18.2204],[-96.9048,18.2243],[-96.9017,18.2279],[-96.898,18.2311],[-96.8942,18.2341],[-96.8811,18.244],[-96.8659,18.2502],[-96.8498,18.2545],[-96.8341,18.2592],[-96.8273,18.2616],[-96.8208,18.2646],[-96.8146,18.2681],[-96.8087,18.2722],[-96.7895,18.2837],[-96.7775,18.2997],[-96.7688,18.3186],[-96.7601,18.3388],[-96.7492,18.3582],[-96.7395,18.3741],[-96.7322,18.3902],[-96.7281,18.4102],[-96.7243,18.4143],[-96.7205,18.4185],[-96.7166,18.4225],[-96.7128,18.4266],[-96.6897,18.4505],[-96.6648,18.4765],[-96.644,18.5048],[-96.6338,18.5358],[-96.6367,18.5701],[-96.647,18.6051],[-96.6584,18.6387],[-96.6641,18.6689],[-96.6563,18.6619],[-96.6484,18.6549],[-96.6405,18.6479],[-96.6327,18.6409],[-96.5968,18.6124],[-96.5622,18.5929],[-96.5248,18.5798],[-96.4799,18.5703],[-96.4495,18.5641],[-96.4267,18.555],[-96.411,18.5393],[-96.4017,18.5135],[-96.3921,18.4721],[-96.3775,18.428],[-96.3571,18.3873],[-96.3296,18.3555],[-96.3227,18.3501],[-96.3153,18.3452],[-96.3077,18.3407],[-96.2999,18.3366],[-96.2845,18.327],[-96.2715,18.3142],[-96.2602,18.2995],[-96.2504,18.2842],[-96.2422,18.2582],[-96.2373,18.2282],[-96.2289,18.201],[-96.2187,18.1949],[-96.2157,18.1919],[-96.2097,18.1886],[-96.2036,18.1851],[-96.1915,18.1861],[-96.1801,18.1884],[-96.1702,18.1858],[-96.1658,18.1772],[-96.1689,18.1692],[-96.1702,18.1604],[-96.1604,18.1497],[-96.149,18.1443],[-96.1355,18.1409],[-96.1216,18.1401],[-96.1093,18.1428],[-96.103,18.1483],[-96.0911,18.1654],[-96.0831,18.1714],[-96.071,18.1722],[-96.0497,18.1682],[-96.0364,18.1634],[-96.023,18.1621],[-96.0078,18.1618],[-95.9945,18.1603],[-95.9926,18.1607],[-95.9907,18.1611],[-95.9888,18.1615],[-95.987,18.1619],[-95.9767,18.1648],[-95.9664,18.1657],[-95.9562,18.1643],[-95.9466,18.1603],[-95.9359,18.1544],[-95.9248,18.1492],[-95.9134,18.1449],[-95.9015,18.142],[-95.8929,18.1404],[-95.8842,18.1387],[-95.8756,18.1369],[-95.8671,18.1347],[-95.8593,18.1319],[-95.8519,18.1286],[-95.8447,18.1247],[-95.8377,18.1204],[-95.819,18.0925],[-95.8055,18.0596],[-95.7925,18.026],[-95.7755,17.9954],[-95.7944,17.9473],[-95.8212,17.9073],[-95.8533,17.8708],[-95.8879,17.8333],[-95.891,17.8288],[-95.8938,17.8243],[-95.8964,17.8195],[-95.8987,17.8147],[-95.9103,17.7836],[-95.9085,17.7563],[-95.8975,17.7292],[-95.8811,17.6983],[-95.8602,17.6581],[-95.8391,17.6179],[-95.8181,17.5777],[-95.797,17.5375],[-95.7849,17.5228],[-95.7702,17.516],[-95.7532,17.5121],[-95.7343,17.5061],[-95.7309,17.5036],[-95.7273,17.5023],[-95.7234,17.5023],[-95.7195,17.5037],[-95.6979,17.5101],[-95.68,17.5196],[-95.6617,17.5264],[-95.6392,17.5252],[-95.6245,17.5197],[-95.6123,17.5154],[-95.6004,17.5176],[-95.587,17.5313],[-95.578,17.5322],[-95.5684,17.5325],[-95.5611,17.5349],[-95.5587,17.5419],[-95.5589,17.5481],[-95.5578,17.5532],[-95.5549,17.5571],[-95.5494,17.5595],[-95.5349,17.5662],[-95.5184,17.5763],[-95.5025,17.5851],[-95.4896,17.588],[-95.4777,17.5911],[-95.4682,17.6015],[-95.46,17.6142],[-95.4515,17.6244],[-95.431,17.6361],[-95.4095,17.6407],[-95.3872,17.6415],[-95.3642,17.6414],[-95.3649,17.6486],[-95.3627,17.6527],[-95.3592,17.6558],[-95.356,17.6597],[-95.3271,17.6633],[-95.3079,17.6727],[-95.2949,17.6881],[-95.2842,17.7101],[-95.2765,17.7157],[-95.2655,17.7124],[-95.2536,17.7063],[-95.244,17.7032],[-95.2374,17.7068],[-95.2418,17.7144],[-95.2467,17.7232],[-95.2411,17.7301],[-95.2331,17.7298],[-95.223,17.7311],[-95.2138,17.7324],[-95.2084,17.7323],[-95.1996,17.7233],[-95.1965,17.7105],[-95.1972,17.6965],[-95.1997,17.6845],[-95.2011,17.6766],[-95.2023,17.6654],[-95.2037,17.6548],[-95.2056,17.6484],[-95.213,17.6429],[-95.2233,17.6389],[-95.234,17.6347],[-95.2423,17.6288],[-95.2489,17.6177],[-95.2516,17.6064],[-95.2528,17.5947],[-95.2547,17.5826],[-95.224,17.549],[-95.1942,17.5143],[-95.1638,17.4806],[-95.131,17.4499],[-95.1155,17.4363],[-95.1016,17.4222],[-95.0885,17.4073],[-95.0755,17.3911],[-95.0519,17.3842],[-95.0236,17.3741],[-94.9988,17.3604],[-94.9858,17.3429],[-94.9838,17.3355],[-94.9815,17.3277],[-94.9795,17.3197],[-94.9788,17.3122],[-94.9811,17.3089],[-94.986,17.307],[-94.9903,17.3049],[-94.9912,17.3007],[-94.9863,17.2847],[-94.9815,17.2689],[-94.9766,17.253],[-94.9717,17.237],[-94.9385,17.2165],[-94.8736,17.2083],[-94.8031,17.2067],[-94.7531,17.2058],[-94.7193,17.2033],[-94.6854,17.2007],[-94.6515,17.1982],[-94.6176,17.1956],[-94.5874,17.1933],[-94.5573,17.1908],[-94.5272,17.1885],[-94.497,17.1861],[-94.3411,17.1771],[-94.1852,17.1682],[-94.0293,17.1592],[-93.8734,17.1502],[-93.866,17.1248],[-93.8648,17.0963],[-93.8666,17.0674],[-93.8681,17.0406],[-93.8674,17.0337],[-93.8675,17.0265],[-93.8678,17.0192],[-93.8681,17.0122],[-93.8943,17.0172],[-93.9053,17.0005],[-93.9075,16.9734],[-93.9073,16.9474],[-93.9068,16.9335],[-93.9061,16.9123],[-93.9069,16.8919],[-93.9113,16.8807],[-93.9257,16.8719],[-93.9401,16.8631],[-93.9545,16.8543],[-93.9689,16.8455],[-93.9861,16.8365],[-94.0083,16.8254],[-94.029,16.8132],[-94.0415,16.8005],[-94.0447,16.7803],[-94.0423,16.7533],[-94.0377,16.7257],[-94.0347,16.704],[-94.034,16.6829],[-94.0354,16.6626],[-94.0398,16.6429],[-94.0481,16.6235],[-94.0734,16.5899],[-94.1049,16.5504],[-94.1251,16.5088],[-94.1159,16.469],[-94.1055,16.4517],[-94.0967,16.4332],[-94.0885,16.4142],[-94.0805,16.3955],[-94.0675,16.3692],[-94.052,16.3363],[-94.0399,16.3026],[-94.0369,16.2733],[-94.0393,16.2548],[-94.0423,16.2351],[-94.0464,16.2159],[-94.0524,16.1987],[-94.0601,16.185],[-94.0692,16.1722],[-94.0781,16.1594],[-94.0836,16.1489],[-94.1027,16.1641],[-94.1164,16.1791],[-94.1222,16.1925],[-94.1278,16.2209],[-94.1424,16.2268],[-94.1623,16.2197],[-94.1836,16.2092],[-94.2242,16.2036],[-94.2667,16.2153],[-94.3071,16.2376],[-94.3413,16.2638],[-94.3636,16.287],[-94.3777,16.2954],[-94.3993,16.2986],[-94.4173,16.2925],[-94.4191,16.2777],[-94.4153,16.2598],[-94.4164,16.244],[-94.4232,16.244],[-94.4323,16.2488],[-94.4365,16.2456],[-94.4349,16.2397],[-94.4266,16.2365],[-94.4142,16.234],[-94.4145,16.2286],[-94.4233,16.2238],[-94.4369,16.2228],[-94.3455,16.1632],[-94.2926,16.1411],[-94.2655,16.1484],[-94.3413,16.1757],[-94.3413,16.1819],[-94.3153,16.1805],[-94.2748,16.1657],[-94.2556,16.162],[-94.23,16.1633],[-94.2195,16.1613],[-94.2041,16.1546],[-94.17,16.1347],[-94.17,16.1273],[-94.1836,16.1273],[-94.1836,16.1204],[-94.1128,16.1057],[-94.094,16.099],[-94.1149,16.0572]]]}}]}