{"type":"FeatureCollection","features":[{"type":"Feature","properties":{"name":"Sierra Mazateca"},"geometry":{"type":"Polygon","coordinates":[[[-97.1862,17.9324],[-97.1978,17.9507],[-97.2066,17.97],[-97.2126,17.99],[-97.2162,18.0105],[-97.2174,18.0313],[-97.2165,18.0524],[-97.2136,18.0736],[-97.2089,18.0947],[-97.2025,18.1158],[-97.1945,18.1366],[-97.1852,18.1571],[-97.1745,18.1773],[-97.1627,18.1971],[-97.1497,18.2165],[-97.1359,18.2353],[-97.1211,18.2535],[-97.1056,18.2712],[-97.0894,18.2883],[-97.0726,18.3047],[-97.0552,18.3204],[-97.0375,18.3354],[-97.0193,18.3497],[-97.0009,18.3633],[-96.9822,18.3762],[-96.9631,18.3885],[-96.9433,18.4003],[-96.9229,18.4117],[-96.902,18.4224],[-96.8805,18.4325],[-96.8585,18.4419],[-96.8361,18.4506],[-96.8133,18.4584],[-96.7902,18.4654],[-96.7668,18.4714],[-96.7432,18.4763],[-96.7196,18.4802],[-96.6959,18.4828],[-96.6723,18.4842],[-96.6489,18.4842],[-96.6259,18.4827],[-96.6033,18.4797],[-96.5814,18.475],[-96.5602,18.4687],[-96.5399,18.4604],[-96.5208,18.4503],[-96.5031,18.438],[-96.487,18.4236],[-96.4729,18.407],[-96.4613,18.3886],[-96.4526,18.3693],[-96.4466,18.3493],[-96.4431,18.3288],[-96.442,18.3079],[-96.443,18.2868],[-96.446,18.2657],[-96.4508,18.2445],[-96.4573,18.2235],[-96.4653,18.2027],[-96.4748,18.1822],[-96.4855,18.162],[-96.4974,18.1423],[-96.5104,18.123],[-96.5244,18.1042],[-96.5392,18.086],[-96.5547,18.0684],[-96.571,18.0514],[-96.5878,18.035],[-96.6051,18.0194],[-96.6229,18.0044],[-96.6411,17.9901],[-96.6595,17.9765],[-96.6782,17.9637],[-96.6973,17.9514],[-96.717,17.9396],[-96.7373,17.9283],[-96.7582,17.9176],[-96.7797,17.9075],[-96.8016,17.8981],[-96.8239,17.8894],[-96.8466,17.8816],[-96.8697,17.8746],[-96.893,17.8686],[-96.9165,17.8636],[-96.9401,17.8598],[-96.9636,17.8571],[-96.9871,17.8557],[-97.0104,17.8557],[-97.0334,17.8571],[-97.0559,17.86],[-97.0778,17.8646],[-97.0989,17.871],[-97.1191,17.8791],[-97.1382,17.8892],[-97.1559,17.9014],[-97.172,17.9158],[-97.1862,17.9324]]]}}]}